NORAD_CAT_ID,OBJECT_NAME,OBJECT_TYPE,EPOCH,MEAN_MOTION,ECCENTRICITY,INCLINATION,RA_OF_ASC_NODE,ARG_OF_PERICENTER,MEAN_ANOMALY,BSTAR,MEAN_MOTION_DOT,MEAN_MOTION_DDOT,TLE_LINE0,TLE_LINE1,TLE_LINE2,SEMIMAJOR_AXIS,PERIOD,APOGEE,PERIGEE,DECAYED
53908.0,STARLINK-5057,PAYLOAD,2023-10-25 05:00:18,15.08843243,0.0001415,53.2182,244.0497,103.4023,256.7127,0.00015327,2.152e-05,0.0,0 STARLINK-5057,1 53908U 22119Y   23298.20854896  .00002152  00000-0  15327-3 0  9997,2 53908  53.2182 244.0497 0001415 103.4023 256.7127 15.08843243 60590,6917.87,95.437,540.714,538.757,0.0
53908.0,STARLINK-5057,PAYLOAD,2023-10-26 04:51:05,15.08845661,0.0001429,53.2185,239.5906,102.3964,257.7188,0.0001004,1.311e-05,0.0,0 STARLINK-5057,1 53908U 22119Y   23299.20215016  .00001311  00000-0  10040-3 0  9996,2 53908  53.2185 239.5906 0001429 102.3964 257.7188 15.08845661 61162,6917.863,95.437,540.717,538.74,0.0
53908.0,STARLINK-5057,PAYLOAD,2023-10-27 04:41:52,15.08854262,0.0001503,53.2178,235.1285,91.2021,268.9143,0.0002158,3.149e-05,0.0,0 STARLINK-5057,1 53908U 22119Y   23300.19574335  .00003149  00000-0  21580-3 0  9991,2 53908  53.2178 235.1285 0001503  91.2021 268.9143 15.08854262 60890,6917.837,95.437,540.742,538.662,0.0
53908.0,STARLINK-5057,PAYLOAD,2023-10-27 12:38:48,15.08838524,0.0001372,53.2182,233.6432,101.8438,258.2708,5.5575e-06,-1.99e-06,0.0,0 STARLINK-5057,1 53908U 22119Y   23300.52695014 -.00000199  00000-0  55575-5 0  9992,2 53908  53.2182 233.6432 0001372 101.8438 258.2708 15.08838524 60944,6917.885,95.438,540.699,538.801,0.0
53908.0,STARLINK-5057,PAYLOAD,2023-10-27 19:00:21,15.08837496,0.0001745,53.2176,232.4525,91.4661,268.6531,-3.3625e-05,-8.23e-06,0.0,0 STARLINK-5057,1 53908U 22119Y   23300.79191305 -.00000823  00000-0 -33625-4 0  9991,2 53908  53.2176 232.4525 0001745  91.4661 268.6531 15.08837496 61401,6917.888,95.438,540.96,538.546,0.0
53908.0,STARLINK-5057,PAYLOAD,2023-10-28 12:29:35,15.08844931,0.0001698,53.2181,229.1814,88.2538,271.8649,-6.9444e-05,-1.393e-05,0.0,0 STARLINK-5057,1 53908U 22119Y   23301.52055043 -.00001393  00000-0 -69444-4 0  9992,2 53908  53.2181 229.1814 0001698  88.2538 271.8649 15.08844931 61515,6917.865,95.437,540.905,538.556,0.0
53908.0,STARLINK-5057,PAYLOAD,2023-10-29 01:12:40,15.08844314,0.0001747,53.2177,226.802,89.2793,270.8399,1.908e-05,1.6e-07,0.0,0 STARLINK-5057,1 53908U 22119Y   23302.05047270  .00000016  00000-0  19080-4 0  9994,2 53908  53.2177 226.8020 0001747  89.2793 270.8399 15.08844314 61170,6917.867,95.437,540.941,538.524,0.0
53908.0,STARLINK-5057,PAYLOAD,2023-10-29 12:20:23,15.0882551,0.0001752,53.2177,224.721,86.0495,274.0698,-0.00016466,-2.907e-05,0.0,0 STARLINK-5057,1 53908U 22119Y   23302.51416661 -.00002907  00000-0 -16466-3 0  9996,2 53908  53.2177 224.7210 0001752  86.0495 274.0698 15.08825510 61241,6917.925,95.438,541.002,538.578,0.0
53908.0,STARLINK-5057,PAYLOAD,2023-10-29 18:41:57,15.0881661,0.0002026,53.2185,223.5329,87.048,273.0744,-4.7928e-05,-1.05e-05,0.0,0 STARLINK-5057,1 53908U 22119Y   23302.77913653 -.00001050  00000-0 -47928-4 0  9993,2 53908  53.2185 223.5329 0002026  87.0480 273.0744 15.08816610 61284,6917.952,95.439,541.218,538.415,0.0
53908.0,STARLINK-5057,PAYLOAD,2023-10-30 18:32:44,15.08839678,0.0001337,53.2182,219.0706,93.9642,266.1503,0.00023456,3.447e-05,0.0,0 STARLINK-5057,1 53908U 22119Y   23303.77273241  .00003447  00000-0  23456-3 0  9995,2 53908  53.2182 219.0706 0001337  93.9642 266.1503 15.08839678 61432,6917.881,95.438,540.671,538.821,0.0
53908.0,STARLINK-5057,PAYLOAD,2023-10-31 00:54:15,15.08857784,0.0001829,53.2181,217.8824,92.5837,267.5365,0.00040823,6.218e-05,0.0,0 STARLINK-5057,1 53908U 22119Y   23304.03768414  .00006218  00000-0  40823-3 0  9992,2 53908  53.2181 217.8824 0001829  92.5837 267.5365 15.08857784 61478,6917.826,95.436,540.956,538.426,0.0
53908.0,STARLINK-5057,PAYLOAD,2023-10-31 18:23:30,15.08847138,0.0001953,53.2171,214.614,74.7777,285.3431,0.00043334,6.617e-05,0.0,0 STARLINK-5057,1 53908U 22119Y   23304.76632925  .00006617  00000-0  43334-3 0  9992,2 53908  53.2171 214.6140 0001953  74.7777 285.3431 15.08847138 61582,6917.859,95.437,541.075,538.373,0.0
53908.0,STARLINK-5057,PAYLOAD,2023-10-31 21:34:17,15.088448,0.0001816,53.2171,214.018,80.5955,279.5242,0.00036388,5.509e-05,0.0,0 STARLINK-5057,1 53908U 22119Y   23304.89880899  .00005509  00000-0  36388-3 0  9991,2 53908  53.2171 214.0180 0001816  80.5955 279.5242 15.08844800 62029,6917.866,95.437,540.987,538.474,0.0
53908.0,STARLINK-5057,PAYLOAD,2023-11-01 03:55:49,15.08853592,0.0001621,53.2169,212.8247,87.3783,272.7394,0.00029911,4.477e-05,0.0,0 STARLINK-5057,1 53908U 22119Y   23305.16376170  .00004477  00000-0  29911-3 0  9991,2 53908  53.2169 212.8247 0001621  87.3783 272.7394 15.08853592 62069,6917.839,95.437,540.825,538.582,0.0
53908.0,STARLINK-5057,PAYLOAD,2023-11-01 23:00:26,15.08852583,0.0001819,53.2174,209.2579,90.5886,269.5315,-7.8444e-05,-1.537e-05,0.0,0 STARLINK-5057,1 53908U 22119Y   23305.95863604 -.00001537  00000-0 -78444-4 0  9993,2 53908  53.2174 209.2579 0001819  90.5886 269.5315 15.08852583 61764,6917.842,95.437,540.965,538.449,0.0
53908.0,STARLINK-5057,PAYLOAD,2023-11-02 10:08:07,15.0885642,0.0001561,53.2184,207.1768,86.2001,273.9169,-5.0255e-05,-1.088e-05,0.0,0 STARLINK-5057,1 53908U 22119Y   23306.42231165 -.00001088  00000-0 -50255-4 0  9998,2 53908  53.2184 207.1768 0001561  86.2001 273.9169 15.08856420 62252,6917.83,95.437,540.775,538.615,0.0
53908.0,STARLINK-5057,PAYLOAD,2023-11-02 21:15:50,15.08841638,0.0001469,53.2179,205.0932,71.7748,288.3404,-2.6271e-05,-7.06e-06,0.0,0 STARLINK-5057,1 53908U 22119Y   23306.88600126 -.00000706  00000-0 -26271-4 0  9992,2 53908  53.2179 205.0932 0001469  71.7748 288.3404 15.08841638 61908,6917.875,95.437,540.757,538.724,0.0
53908.0,STARLINK-5057,PAYLOAD,2023-11-03 09:58:55,15.08848816,0.0001942,53.2174,202.7138,84.8086,275.3128,-0.00014497,-2.595e-05,0.0,0 STARLINK-5057,1 53908U 22119Y   23307.41591862 -.00002595  00000-0 -14497-3 0  9992,2 53908  53.2174 202.7138 0001942  84.8086 275.3128 15.08848816 62401,6917.853,95.437,541.062,538.375,0.0
53908.0,STARLINK-5057,PAYLOAD,2023-11-03 22:42:00,15.08846122,0.0001455,53.2178,200.3346,76.8849,283.2306,-2.0325e-05,-6.11e-06,0.0,0 STARLINK-5057,1 53908U 22119Y   23307.94583889 -.00000611  00000-0 -20325-4 0  9995,2 53908  53.2178 200.3346 0001455  76.8849 283.2306 15.08846122 62489,6917.862,95.437,540.733,538.72,0.0
53908.0,STARLINK-5057,PAYLOAD,2023-11-04 00:17:23,15.08851152,0.0001324,53.2173,200.0406,91.152,268.9624,4.5935e-05,4.43e-06,0.0,0 STARLINK-5057,1 53908U 22119Y   23308.01207368  .00000443  00000-0  45935-4 0  9994,2 53908  53.2173 200.0406 0001324  91.1520 268.9624 15.08851152 62076,6917.846,95.437,540.627,538.795,0.0
53908.0,STARLINK-5057,PAYLOAD,2023-11-04 09:49:41,15.08851337,0.0001244,53.2174,198.256,84.782,275.3314,5.3705e-05,5.67e-06,0.0,0 STARLINK-5057,1 53908U 22119Y   23308.40951139  .00000567  00000-0  53705-4 0  9990,2 53908  53.2174 198.2560 0001244  84.7820 275.3314 15.08851337 62554,6917.846,95.437,540.571,538.85,0.0
53908.0,STARLINK-5057,PAYLOAD,2023-11-04 20:57:25,15.08826925,0.0001276,53.2188,196.1736,76.6279,283.4855,7.9665e-05,9.8e-06,0.0,0 STARLINK-5057,1 53908U 22119Y   23308.87320963  .00000980  00000-0  79665-4 0  9998,2 53908  53.2188 196.1736 0001276  76.6279 283.4855 15.08826925 62201,6917.92,95.438,540.668,538.903,0.0
53908.0,STARLINK-5057,PAYLOAD,2023-11-04 22:32:47,15.08834847,0.0001661,53.2175,195.8763,74.9649,285.1527,2.7421e-05,1.48e-06,0.0,0 STARLINK-5057,1 53908U 22119Y   23308.93944290  .00000148  00000-0  27421-4 0  9999,2 53908  53.2175 195.8763 0001661  74.9649 285.1527 15.08834847 62637,6917.896,95.438,540.91,538.612,0.0
53908.0,STARLINK-5057,PAYLOAD,2023-11-05 01:43:33,15.08847888,0.0001261,53.2156,195.2805,85.4929,274.6207,0.00018569,2.669e-05,0.0,0 STARLINK-5057,1 53908U 22119Y   23309.07191390  .00002669  00000-0  18569-3 0  9992,2 53908  53.2156 195.2805 0001261  85.4929 274.6207 15.08847888 62234,6917.856,95.437,540.594,538.849,0.0
53908.0,STARLINK-5057,PAYLOAD,2023-11-05 09:40:29,15.08847016,0.0001321,53.2159,193.7939,83.0443,277.07,0.00014541,2.027e-05,0.0,0 STARLINK-5057,1 53908U 22119Y   23309.40311400  .00002027  00000-0  14541-3 0  9999,2 53908  53.2159 193.7939 0001321  83.0443 277.0700 15.08847016 62700,6917.859,95.437,540.638,538.81,0.0
53908.0,STARLINK-5057,PAYLOAD,2023-11-05 22:23:33,15.08857072,9.35e-05,53.2178,191.4159,91.4378,268.6721,0.00028008,4.175e-05,0.0,0 STARLINK-5057,1 53908U 22119Y   23309.93302627  .00004175  00000-0  28008-3 0  9997,2 53908  53.2178 191.4159 0000935  91.4378 268.6721 15.08857072 62780,6917.828,95.436,540.34,539.046,0.0
53908.0,STARLINK-5057,PAYLOAD,2023-11-06 01:34:18,15.08882329,0.0001363,53.2158,190.8218,90.9859,269.1289,0.00053482,8.244e-05,0.0,0 STARLINK-5057,1 53908U 22119Y   23310.06549237  .00008244  00000-0  53482-3 0  9998,2 53908  53.2158 190.8218 0001363  90.9859 269.1289 15.08882329 62385,6917.751,95.435,540.559,538.673,0.0
53908.0,STARLINK-5057,PAYLOAD,2023-11-06 09:31:16,15.08836857,0.0002312,53.2165,189.3359,74.3009,285.8238,-8.8801e-05,-1.701e-05,0.0,0 STARLINK-5057,1 53908U 22119Y   23310.39671753 -.00001701  00000-0 -88801-4 0  9990,2 53908  53.2165 189.3359 0002312  74.3009 285.8238 15.08836857 62430,6917.89,95.438,541.354,538.156,0.0
53908.0,STARLINK-5057,PAYLOAD,2023-11-06 22:14:22,15.08824476,0.0001417,53.2166,186.9547,81.8191,278.2961,-0.00026626,-4.521e-05,0.0,0 STARLINK-5057,1 53908U 22119Y   23310.92664519 -.00004521  00000-0 -26626-3 0  9990,2 53908  53.2166 186.9547 0001417  81.8191 278.2961 15.08824476 62931,6917.928,95.439,540.773,538.813,0.0
53908.0,STARLINK-5057,PAYLOAD,2023-11-07 09:22:04,15.08832018,0.000186,53.2171,184.875,77.8948,282.2253,-4.5595e-05,-1.014e-05,0.0,0 STARLINK-5057,1 53908U 22119Y   23311.39032433 -.00001014  00000-0 -45595-4 0  9997,2 53908  53.2171 184.8750 0001860  77.8948 282.2253 15.08832018 62588,6917.905,95.438,541.057,538.483,0.0
